IRIDIUM 126             
1 42809U 17039G   23228.08614501  .00000156  00000+0  48637-4 0  9998
2 42809  86.3923  66.6464 0002056  95.1501 264.9929 14.34217531321459
IRIDIUM 124             
1 42810U 17039H   23229.08154800  .00000529  00000+0  15141-3 0  9999
2 42810  86.4535   2.9753 0002426  90.2616 269.8863 14.43270698325817
IRIDIUM 128             
1 42811U 17039J   23229.19318383  .00000352  00000+0  11850-3 0  9997
2 42811  86.3933  97.7360 0002175  90.6635 269.4810 14.34219652321638
IRIDIUM 121             
1 42812U 17039K   23228.80284726  .00000131  00000+0  39825-4 0  9996
2 42812  86.3924  66.3676 0002107  90.2552 269.8885 14.34216179321547
IRIDIUM 133             
1 42955U 17061A   23228.17836861  .00000304  00000+0  10158-3 0  9991
2 42955  86.3938  98.2532 0002094  92.1638 267.9798 14.34217969306280
IRIDIUM 100             
1 42956U 17061B   23229.14878380  .00000321  00000+0  10739-3 0  9996
2 42956  86.3934  97.7902 0002082  89.5804 270.5631 14.34218860306449
IRIDIUM 122             
1 42957U 17061C   23229.18684768  .00000318  00000+0  10644-3 0  9997
2 42957  86.3934  97.7719 0002237  91.2448 268.9004 14.34214447306433
IRIDIUM 129             
1 42958U 17061D   23229.14243572  .00000307  00000+0  10250-3 0  9999
2 42958  86.3935  97.8466 0002140  91.2940 268.8501 14.34219591306442
